ORBCOMM-X               
1 21576U 91050C   25196.73217971  .00000210  00000+0  75123-4 0  9990
2 21576  98.3422 262.7487 0004916  99.2663 260.9084 14.43279175786230
ORBCOMM FM01            
1 23545U 95017A   25196.86189630  .00003854  00000+0  40463-3 0  9994
2 23545  69.9643   2.6171 0005508 266.4153  93.6372 14.90302030616780
ORBCOMM FM02            
1 23546U 95017B   25196.92173381  .00003786  00000+0  38877-3 0  9998
2 23546  69.9651  21.7652 0006873 266.2227  93.8142 14.91209335616447
ORBCOMM FM08            
1 25112U 97084A   25196.78646656  .00000722  00000+0  24185-3 0  9993
2 25112  45.0128 230.5699 0005183   8.4343 351.6594 14.45870461445518
ORBCOMM FM10            
1 25113U 97084B   25196.84087982  .00000599  00000+0  20843-3 0  9991
2 25113  45.0139 232.7392 0005274 328.5247  31.5288 14.45656683620668
ORBCOMM FM11            
1 25114U 97084C   25196.78127417  .00000650  00000+0  22376-3 0  9994
2 25114  45.0126 233.7100 0005896 333.4648  26.5901 14.45407065445617
ORBCOMM FM12            
1 25115U 97084D   25196.81246215  .00000583  00000+0  20491-3 0  9998
2 25115  45.0133 233.3077 0005179 326.2745  33.7776 14.45426824445419
ORBCOMM FM09            
1 25116U 97084E   25196.50163655  .00000611  00000+0  21332-3 0  9998
2 25116  45.0137 235.7600 0006734 322.2706  37.7672 14.45301490445570
