<?xml version="1.0" encoding="UTF-8"?>
<ndm xmlns:xsi="http://www.w3.org/2001/XMLSchema-instance" xsi:noNamespaceSchemaLocation="https://sanaregistry.org/r/ndmxml_unqualified/ndmxml-2.0.0-master-2.0.xsd">
<omm id="CCSDS_OMM_VERS" version="2.0">
<header><CREATION_DATE/><ORIGINATOR/></header><body><segment><metadata><OBJECT_NAME>ORBCOMM-X</OBJECT_NAME><OBJECT_ID>1991-050C</OBJECT_ID><CENTER_NAME>EARTH</CENTER_NAME><REF_FRAME>TEME</REF_FRAME><TIME_SYSTEM>UTC</TIME_SYSTEM><MEAN_ELEMENT_THEORY>SGP4</MEAN_ELEMENT_THEORY></metadata><data><meanElements><EPOCH>2025-07-15T17:34:20.326944</EPOCH><MEAN_MOTION>14.43279175</MEAN_MOTION><ECCENTRICITY>.0004916</ECCENTRICITY><INCLINATION>98.3422</INCLINATION><RA_OF_ASC_NODE>262.7487</RA_OF_ASC_NODE><ARG_OF_PERICENTER>99.2663</ARG_OF_PERICENTER><MEAN_ANOMALY>260.9084</MEAN_ANOMALY></meanElements><tleParameters><EPHEMERIS_TYPE>0</EPHEMERIS_TYPE><CLASSIFICATION_TYPE>U</CLASSIFICATION_TYPE><NORAD_CAT_ID>21576</NORAD_CAT_ID><ELEMENT_SET_NO>999</ELEMENT_SET_NO><REV_AT_EPOCH>78623</REV_AT_EPOCH><BSTAR>.75123E-4</BSTAR><MEAN_MOTION_DOT>.21E-5</MEAN_MOTION_DOT><MEAN_MOTION_DDOT>0</MEAN_MOTION_DDOT></tleParameters></data></segment></body></omm>
<omm id="CCSDS_OMM_VERS" version="2.0">
<header><CREATION_DATE/><ORIGINATOR/></header><body><segment><metadata><OBJECT_NAME>ORBCOMM FM01</OBJECT_NAME><OBJECT_ID>1995-017A</OBJECT_ID><CENTER_NAME>EARTH</CENTER_NAME><REF_FRAME>TEME</REF_FRAME><TIME_SYSTEM>UTC</TIME_SYSTEM><MEAN_ELEMENT_THEORY>SGP4</MEAN_ELEMENT_THEORY></metadata><data><meanElements><EPOCH>2025-07-15T20:41:07.840320</EPOCH><MEAN_MOTION>14.90302030</MEAN_MOTION><ECCENTRICITY>.0005508</ECCENTRICITY><INCLINATION>69.9643</INCLINATION><RA_OF_ASC_NODE>2.6171</RA_OF_ASC_NODE><ARG_OF_PERICENTER>266.4153</ARG_OF_PERICENTER><MEAN_ANOMALY>93.6372</MEAN_ANOMALY></meanElements><tleParameters><EPHEMERIS_TYPE>0</EPHEMERIS_TYPE><CLASSIFICATION_TYPE>U</CLASSIFICATION_TYPE><NORAD_CAT_ID>23545</NORAD_CAT_ID><ELEMENT_SET_NO>999</ELEMENT_SET_NO><REV_AT_EPOCH>61678</REV_AT_EPOCH><BSTAR>.40463E-3</BSTAR><MEAN_MOTION_DOT>.3854E-4</MEAN_MOTION_DOT><MEAN_MOTION_DDOT>0</MEAN_MOTION_DDOT></tleParameters></data></segment></body></omm>
<omm id="CCSDS_OMM_VERS" version="2.0">
<header><CREATION_DATE/><ORIGINATOR/></header><body><segment><metadata><OBJECT_NAME>ORBCOMM FM02</OBJECT_NAME><OBJECT_ID>1995-017B</OBJECT_ID><CENTER_NAME>EARTH</CENTER_NAME><REF_FRAME>TEME</REF_FRAME><TIME_SYSTEM>UTC</TIME_SYSTEM><MEAN_ELEMENT_THEORY>SGP4</MEAN_ELEMENT_THEORY></metadata><data><meanElements><EPOCH>2025-07-15T22:07:17.801184</EPOCH><MEAN_MOTION>14.91209335</MEAN_MOTION><ECCENTRICITY>.0006873</ECCENTRICITY><INCLINATION>69.9651</INCLINATION><RA_OF_ASC_NODE>21.7652</RA_OF_ASC_NODE><ARG_OF_PERICENTER>266.2227</ARG_OF_PERICENTER><MEAN_ANOMALY>93.8142</MEAN_ANOMALY></meanElements><tleParameters><EPHEMERIS_TYPE>0</EPHEMERIS_TYPE><CLASSIFICATION_TYPE>U</CLASSIFICATION_TYPE><NORAD_CAT_ID>23546</NORAD_CAT_ID><ELEMENT_SET_NO>999</ELEMENT_SET_NO><REV_AT_EPOCH>61644</REV_AT_EPOCH><BSTAR>.38877E-3</BSTAR><MEAN_MOTION_DOT>.3786E-4</MEAN_MOTION_DOT><MEAN_MOTION_DDOT>0</MEAN_MOTION_DDOT></tleParameters></data></segment></body></omm>
<omm id="CCSDS_OMM_VERS" version="2.0">
<header><CREATION_DATE/><ORIGINATOR/></header><body><segment><metadata><OBJECT_NAME>ORBCOMM FM08</OBJECT_NAME><OBJECT_ID>1997-084A</OBJECT_ID><CENTER_NAME>EARTH</CENTER_NAME><REF_FRAME>TEME</REF_FRAME><TIME_SYSTEM>UTC</TIME_SYSTEM><MEAN_ELEMENT_THEORY>SGP4</MEAN_ELEMENT_THEORY></metadata><data><meanElements><EPOCH>2025-07-15T18:52:30.710784</EPOCH><MEAN_MOTION>14.45870461</MEAN_MOTION><ECCENTRICITY>.0005183</ECCENTRICITY><INCLINATION>45.0128</INCLINATION><RA_OF_ASC_NODE>230.5699</RA_OF_ASC_NODE><ARG_OF_PERICENTER>8.4343</ARG_OF_PERICENTER><MEAN_ANOMALY>351.6594</MEAN_ANOMALY></meanElements><tleParameters><EPHEMERIS_TYPE>0</EPHEMERIS_TYPE><CLASSIFICATION_TYPE>U</CLASSIFICATION_TYPE><NORAD_CAT_ID>25112</NORAD_CAT_ID><ELEMENT_SET_NO>999</ELEMENT_SET_NO><REV_AT_EPOCH>44551</REV_AT_EPOCH><BSTAR>.24185E-3</BSTAR><MEAN_MOTION_DOT>.722E-5</MEAN_MOTION_DOT><MEAN_MOTION_DDOT>0</MEAN_MOTION_DDOT></tleParameters></data></segment></body></omm>
<omm id="CCSDS_OMM_VERS" version="2.0">
<header><CREATION_DATE/><ORIGINATOR/></header><body><segment><metadata><OBJECT_NAME>ORBCOMM FM10</OBJECT_NAME><OBJECT_ID>1997-084B</OBJECT_ID><CENTER_NAME>EARTH</CENTER_NAME><REF_FRAME>TEME</REF_FRAME><TIME_SYSTEM>UTC</TIME_SYSTEM><MEAN_ELEMENT_THEORY>SGP4</MEAN_ELEMENT_THEORY></metadata><data><meanElements><EPOCH>2025-07-15T20:10:52.016448</EPOCH><MEAN_MOTION>14.45656683</MEAN_MOTION><ECCENTRICITY>.0005274</ECCENTRICITY><INCLINATION>45.0139</INCLINATION><RA_OF_ASC_NODE>232.7392</RA_OF_ASC_NODE><ARG_OF_PERICENTER>328.5247</ARG_OF_PERICENTER><MEAN_ANOMALY>31.5288</MEAN_ANOMALY></meanElements><tleParameters><EPHEMERIS_TYPE>0</EPHEMERIS_TYPE><CLASSIFICATION_TYPE>U</CLASSIFICATION_TYPE><NORAD_CAT_ID>25113</NORAD_CAT_ID><ELEMENT_SET_NO>999</ELEMENT_SET_NO><REV_AT_EPOCH>62066</REV_AT_EPOCH><BSTAR>.20843E-3</BSTAR><MEAN_MOTION_DOT>.599E-5</MEAN_MOTION_DOT><MEAN_MOTION_DDOT>0</MEAN_MOTION_DDOT></tleParameters></data></segment></body></omm>
<omm id="CCSDS_OMM_VERS" version="2.0">
<header><CREATION_DATE/><ORIGINATOR/></header><body><segment><metadata><OBJECT_NAME>ORBCOMM FM11</OBJECT_NAME><OBJECT_ID>1997-084C</OBJECT_ID><CENTER_NAME>EARTH</CENTER_NAME><REF_FRAME>TEME</REF_FRAME><TIME_SYSTEM>UTC</TIME_SYSTEM><MEAN_ELEMENT_THEORY>SGP4</MEAN_ELEMENT_THEORY></metadata><data><meanElements><EPOCH>2025-07-15T18:45:02.088288</EPOCH><MEAN_MOTION>14.45407065</MEAN_MOTION><ECCENTRICITY>.0005896</ECCENTRICITY><INCLINATION>45.0126</INCLINATION><RA_OF_ASC_NODE>233.7100</RA_OF_ASC_NODE><ARG_OF_PERICENTER>333.4648</ARG_OF_PERICENTER><MEAN_ANOMALY>26.5901</MEAN_ANOMALY></meanElements><tleParameters><EPHEMERIS_TYPE>0</EPHEMERIS_TYPE><CLASSIFICATION_TYPE>U</CLASSIFICATION_TYPE><NORAD_CAT_ID>25114</NORAD_CAT_ID><ELEMENT_SET_NO>999</ELEMENT_SET_NO><REV_AT_EPOCH>44561</REV_AT_EPOCH><BSTAR>.22376E-3</BSTAR><MEAN_MOTION_DOT>.65E-5</MEAN_MOTION_DOT><MEAN_MOTION_DDOT>0</MEAN_MOTION_DDOT></tleParameters></data></segment></body></omm>
<omm id="CCSDS_OMM_VERS" version="2.0">
<header><CREATION_DATE/><ORIGINATOR/></header><body><segment><metadata><OBJECT_NAME>ORBCOMM FM12</OBJECT_NAME><OBJECT_ID>1997-084D</OBJECT_ID><CENTER_NAME>EARTH</CENTER_NAME><REF_FRAME>TEME</REF_FRAME><TIME_SYSTEM>UTC</TIME_SYSTEM><MEAN_ELEMENT_THEORY>SGP4</MEAN_ELEMENT_THEORY></metadata><data><meanElements><EPOCH>2025-07-15T19:29:56.729760</EPOCH><MEAN_MOTION>14.45426824</MEAN_MOTION><ECCENTRICITY>.0005179</ECCENTRICITY><INCLINATION>45.0133</INCLINATION><RA_OF_ASC_NODE>233.3077</RA_OF_ASC_NODE><ARG_OF_PERICENTER>326.2745</ARG_OF_PERICENTER><MEAN_ANOMALY>33.7776</MEAN_ANOMALY></meanElements><tleParameters><EPHEMERIS_TYPE>0</EPHEMERIS_TYPE><CLASSIFICATION_TYPE>U</CLASSIFICATION_TYPE><NORAD_CAT_ID>25115</NORAD_CAT_ID><ELEMENT_SET_NO>999</ELEMENT_SET_NO><REV_AT_EPOCH>44541</REV_AT_EPOCH><BSTAR>.20491E-3</BSTAR><MEAN_MOTION_DOT>.583E-5</MEAN_MOTION_DOT><MEAN_MOTION_DDOT>0</MEAN_MOTION_DDOT></tleParameters></data></segment></body></omm>
<omm id="CCSDS_OMM_VERS" version="2.0">
<header><CREATION_DATE/><ORIGINATOR/></header><body><segment><metadata><OBJECT_NAME>ORBCOMM FM09</OBJECT_NAME><OBJECT_ID>1997-084E</OBJECT_ID><CENTER_NAME>EARTH</CENTER_NAME><REF_FRAME>TEME</REF_FRAME><TIME_SYSTEM>UTC</TIME_SYSTEM><MEAN_ELEMENT_THEORY>SGP4</MEAN_ELEMENT_THEORY></metadata><data><meanElements><EPOCH>2025-07-15T12:02:21.397920</EPOCH><MEAN_MOTION>14.45301490</MEAN_MOTION><ECCENTRICITY>.0006734</ECCENTRICITY><INCLINATION>45.0137</INCLINATION><RA_OF_ASC_NODE>235.7600</RA_OF_ASC_NODE><ARG_OF_PERICENTER>322.2706</ARG_OF_PERICENTER><MEAN_ANOMALY>37.7672</MEAN_ANOMALY></meanElements><tleParameters><EPHEMERIS_TYPE>0</EPHEMERIS_TYPE><CLASSIFICATION_TYPE>U</CLASSIFICATION_TYPE><NORAD_CAT_ID>25116</NORAD_CAT_ID><ELEMENT_SET_NO>999</ELEMENT_SET_NO><REV_AT_EPOCH>44557</REV_AT_EPOCH><BSTAR>.21332E-3</BSTAR><MEAN_MOTION_DOT>.611E-5</MEAN_MOTION_DOT><MEAN_MOTION_DDOT>0</MEAN_MOTION_DDOT></tleParameters></data></segment></body></omm>

</ndm>
